[{"OBJECT_NAME":"SAOCOM 1A","OBJECT_ID":"2018-076A","EPOCH":"2026-04-23T07:37:10.534656","MEAN_MOTION":14.82149343,"ECCENTRICITY":0.0001527,"INCLINATION":97.8902,"RA_OF_ASC_NODE":300.8591,"ARG_OF_PERICENTER":88.5405,"MEAN_ANOMALY":271.5983,"EPHEMERIS_TYPE":0,"CLASSIFICATION_TYPE":"U","NORAD_CAT_ID":43641,"ELEMENT_SET_NO":999,"REV_AT_EPOCH":40797,"BSTAR":-3.3847712e-5,"MEAN_MOTION_DOT":-3.22e-6,"MEAN_MOTION_DDOT":0},{"OBJECT_NAME":"H-2A R/B","OBJECT_ID":"2018-084L","EPOCH":"2026-04-23T05:45:10.943136","MEAN_MOTION":15.43113765,"ECCENTRICITY":0.00232738,"INCLINATION":98.866,"RA_OF_ASC_NODE":340.2028,"ARG_OF_PERICENTER":225.9375,"MEAN_ANOMALY":133.9952,"EPHEMERIS_TYPE":0,"CLASSIFICATION_TYPE":"U","NORAD_CAT_ID":43682,"ELEMENT_SET_NO":999,"REV_AT_EPOCH":41264,"BSTAR":0.00031059288,"MEAN_MOTION_DOT":0.00013767,"MEAN_MOTION_DDOT":0},{"OBJECT_NAME":"SAOCOM 1B","OBJECT_ID":"2020-059A","EPOCH":"2026-04-23T06:44:52.759680","MEAN_MOTION":14.82188277,"ECCENTRICITY":0.00014187,"INCLINATION":97.8894,"RA_OF_ASC_NODE":299.9174,"ARG_OF_PERICENTER":81.5269,"MEAN_ANOMALY":278.6105,"EPHEMERIS_TYPE":0,"CLASSIFICATION_TYPE":"U","NORAD_CAT_ID":46265,"ELEMENT_SET_NO":999,"REV_AT_EPOCH":30535,"BSTAR":4.472551e-5,"MEAN_MOTION_DOT":3.04e-6,"MEAN_MOTION_DDOT":0},{"OBJECT_NAME":"CSS (TIANHE)","OBJECT_ID":"2021-035A","EPOCH":"2026-04-22T23:12:25.910784","MEAN_MOTION":15.62812808,"ECCENTRICITY":0.00067321,"INCLINATION":41.4675,"RA_OF_ASC_NODE":298.3145,"ARG_OF_PERICENTER":257.7382,"MEAN_ANOMALY":102.2704,"EPHEMERIS_TYPE":0,"CLASSIFICATION_TYPE":"U","NORAD_CAT_ID":48274,"ELEMENT_SET_NO":999,"REV_AT_EPOCH":28453,"BSTAR":0.00026448029,"MEAN_MOTION_DOT":0.0002428,"MEAN_MOTION_DDOT":0},{"OBJECT_NAME":"COSMOS 2550","OBJECT_ID":"2021-056A","EPOCH":"2026-04-23T07:33:30.010752","MEAN_MOTION":15.33823732,"ECCENTRICITY":0.00083331,"INCLINATION":67.1426,"RA_OF_ASC_NODE":265.8911,"ARG_OF_PERICENTER":270.0046,"MEAN_ANOMALY":90.0154,"EPHEMERIS_TYPE":0,"CLASSIFICATION_TYPE":"U","NORAD_CAT_ID":48865,"ELEMENT_SET_NO":999,"REV_AT_EPOCH":27030,"BSTAR":7.0866501e-5,"MEAN_MOTION_DOT":2.14e-5,"MEAN_MOTION_DDOT":0},{"OBJECT_NAME":"CZ-2C R/B","OBJECT_ID":"2022-058K","EPOCH":"2026-04-22T22:54:41.658912","MEAN_MOTION":15.57500164,"ECCENTRICITY":0.0039336,"INCLINATION":50.1865,"RA_OF_ASC_NODE":90.0078,"ARG_OF_PERICENTER":30.3529,"MEAN_ANOMALY":329.9709,"EPHEMERIS_TYPE":0,"CLASSIFICATION_TYPE":"U","NORAD_CAT_ID":52794,"ELEMENT_SET_NO":999,"REV_AT_EPOCH":21702,"BSTAR":0.00043607,"MEAN_MOTION_DOT":0.0003355,"MEAN_MOTION_DDOT":0},{"OBJECT_NAME":"CZ-2C R/B","OBJECT_ID":"2022-132E","EPOCH":"2026-04-22T12:29:29.200704","MEAN_MOTION":15.65889223,"ECCENTRICITY":0.0012902,"INCLINATION":97.2944,"RA_OF_ASC_NODE":117.3079,"ARG_OF_PERICENTER":287.1644,"MEAN_ANOMALY":72.8203,"EPHEMERIS_TYPE":0,"CLASSIFICATION_TYPE":"U","NORAD_CAT_ID":54039,"ELEMENT_SET_NO":999,"REV_AT_EPOCH":19722,"BSTAR":0.00031171126,"MEAN_MOTION_DOT":0.00031744,"MEAN_MOTION_DDOT":0},{"OBJECT_NAME":"GSLV R/B","OBJECT_ID":"2022-138AN","EPOCH":"2026-04-23T02:36:37.301184","MEAN_MOTION":14.97013854,"ECCENTRICITY":0.00210131,"INCLINATION":87.382,"RA_OF_ASC_NODE":151.4802,"ARG_OF_PERICENTER":357.5134,"MEAN_ANOMALY":2.599,"EPHEMERIS_TYPE":0,"CLASSIFICATION_TYPE":"U","NORAD_CAT_ID":54149,"ELEMENT_SET_NO":999,"REV_AT_EPOCH":19057,"BSTAR":0.00015072629,"MEAN_MOTION_DOT":1.77e-5,"MEAN_MOTION_DDOT":0},{"OBJECT_NAME":"XRISM","OBJECT_ID":"2023-137A","EPOCH":"2026-04-23T01:49:31.528704","MEAN_MOTION":15.11973396,"ECCENTRICITY":0.00074961,"INCLINATION":31.0034,"RA_OF_ASC_NODE":356.457,"ARG_OF_PERICENTER":127.5173,"MEAN_ANOMALY":232.6148,"EPHEMERIS_TYPE":0,"CLASSIFICATION_TYPE":"U","NORAD_CAT_ID":57800,"ELEMENT_SET_NO":999,"REV_AT_EPOCH":14451,"BSTAR":0.00022345019,"MEAN_MOTION_DOT":4.028e-5,"MEAN_MOTION_DDOT":0},{"OBJECT_NAME":"ACS3","OBJECT_ID":"2024-077B","EPOCH":"2026-04-22T17:55:33.435264","MEAN_MOTION":13.91470077,"ECCENTRICITY":0.0066905,"INCLINATION":97.185,"RA_OF_ASC_NODE":43.963,"ARG_OF_PERICENTER":350.3018,"MEAN_ANOMALY":9.6851,"EPHEMERIS_TYPE":0,"CLASSIFICATION_TYPE":"U","NORAD_CAT_ID":59588,"ELEMENT_SET_NO":999,"REV_AT_EPOCH":10032,"BSTAR":0.0037433005,"MEAN_MOTION_DOT":4.794e-5,"MEAN_MOTION_DDOT":0},{"OBJECT_NAME":"HTV-X1","OBJECT_ID":"2025-241A","EPOCH":"2026-04-22T23:48:46.558656","MEAN_MOTION":15.32728944,"ECCENTRICITY":0.00078219,"INCLINATION":51.6353,"RA_OF_ASC_NODE":219.4042,"ARG_OF_PERICENTER":344.1053,"MEAN_ANOMALY":15.9682,"EPHEMERIS_TYPE":0,"CLASSIFICATION_TYPE":"U","NORAD_CAT_ID":66174,"ELEMENT_SET_NO":999,"REV_AT_EPOCH":2773,"BSTAR":0.00014900059,"MEAN_MOTION_DOT":4.413e-5,"MEAN_MOTION_DDOT":0},{"OBJECT_NAME":"SZ-21 MODULE","OBJECT_ID":"2025-246C","EPOCH":"2026-04-22T18:21:25.693344","MEAN_MOTION":15.71947588,"ECCENTRICITY":0.00042555,"INCLINATION":41.4735,"RA_OF_ASC_NODE":291.326,"ARG_OF_PERICENTER":310.1381,"MEAN_ANOMALY":49.9089,"EPHEMERIS_TYPE":0,"CLASSIFICATION_TYPE":"U","NORAD_CAT_ID":66515,"ELEMENT_SET_NO":999,"REV_AT_EPOCH":2500,"BSTAR":0.00022143933,"MEAN_MOTION_DOT":0.00029535,"MEAN_MOTION_DDOT":0}]
